[{
    "OBJECT_NAME": "2020-061E",
    "OBJECT_ID": "2020-061E",
    "EPOCH": "2020-09-09T11:32:08.685312",
    "MEAN_MOTION": 15.16035549,
    "ECCENTRICITY": 4.53e-5,
    "INCLINATION": 97.4643,
    "RA_OF_ASC_NODE": 326.4668,
    "ARG_OF_PERICENTER": 143.7371,
    "MEAN_ANOMALY": 216.3893,
    "EPHEMERIS_TYPE": 0,
    "CLASSIFICATION_TYPE": "U",
    "NORAD_CAT_ID": 46276,
    "ELEMENT_SET_NO": 999,
    "REV_AT_EPOCH": 96,
    "BSTAR": 2.0132e-5,
    "MEAN_MOTION_DOT": 3.22e-6,
    "MEAN_MOTION_DDOT": 0
},{
    "OBJECT_NAME": "2020-061F",
    "OBJECT_ID": "2020-061F",
    "EPOCH": "2020-09-09T05:11:45.790944",
    "MEAN_MOTION": 15.1606942,
    "ECCENTRICITY": 2.82e-5,
    "INCLINATION": 97.4642,
    "RA_OF_ASC_NODE": 326.2074,
    "ARG_OF_PERICENTER": 149.718,
    "MEAN_ANOMALY": 210.4069,
    "EPHEMERIS_TYPE": 0,
    "CLASSIFICATION_TYPE": "U",
    "NORAD_CAT_ID": 46277,
    "ELEMENT_SET_NO": 999,
    "REV_AT_EPOCH": 92,
    "BSTAR": 1.6563e-5,
    "MEAN_MOTION_DOT": 2.53e-6,
    "MEAN_MOTION_DDOT": 0
},{
    "OBJECT_NAME": "GHGSAT-C1",
    "OBJECT_ID": "2020-061G",
    "EPOCH": "2020-09-09T05:10:22.397664",
    "MEAN_MOTION": 15.16311132,
    "ECCENTRICITY": 0.0001739,
    "INCLINATION": 97.4643,
    "RA_OF_ASC_NODE": 326.2086,
    "ARG_OF_PERICENTER": 9.0512,
    "MEAN_ANOMALY": 351.0752,
    "EPHEMERIS_TYPE": 0,
    "CLASSIFICATION_TYPE": "U",
    "NORAD_CAT_ID": 46278,
    "ELEMENT_SET_NO": 999,
    "REV_AT_EPOCH": 92,
    "BSTAR": 2.3673e-5,
    "MEAN_MOTION_DOT": 3.93e-6,
    "MEAN_MOTION_DDOT": 0
},{
    "OBJECT_NAME": "STARLINK-1734",
    "OBJECT_ID": "2020-062A",
    "EPOCH": "2020-09-09T07:15:00.110304",
    "MEAN_MOTION": 16.15945368,
    "ECCENTRICITY": 0.0041584,
    "INCLINATION": 52.9928,
    "RA_OF_ASC_NODE": 41.2322,
    "ARG_OF_PERICENTER": 64.6909,
    "MEAN_ANOMALY": 296.0171,
    "EPHEMERIS_TYPE": 0,
    "CLASSIFICATION_TYPE": "U",
    "NORAD_CAT_ID": 46325,
    "ELEMENT_SET_NO": 999,
    "REV_AT_EPOCH": 218,
    "BSTAR": -0.00036944,
    "MEAN_MOTION_DOT": -0.00643142,
    "MEAN_MOTION_DDOT": 1.1731e-5
},{
    "OBJECT_NAME": "STARLINK B",
    "OBJECT_ID": "2020-062B",
    "EPOCH": "2020-09-09T16:00:01.999584",
    "MEAN_MOTION": 15.8711368,
    "ECCENTRICITY": 0.004152,
    "INCLINATION": 52.9967,
    "RA_OF_ASC_NODE": 40.0967,
    "ARG_OF_PERICENTER": 68.5742,
    "MEAN_ANOMALY": 254.4354,
    "EPHEMERIS_TYPE": 0,
    "CLASSIFICATION_TYPE": "U",
    "NORAD_CAT_ID": 46326,
    "ELEMENT_SET_NO": 999,
    "REV_AT_EPOCH": 180,
    "BSTAR": -0.004454,
    "MEAN_MOTION_DOT": -0.0127093,
    "MEAN_MOTION_DDOT": 0.00045169
},{
    "OBJECT_NAME": "CZ-2F R\/B",
    "OBJECT_ID": "2020-063B",
    "EPOCH": "2020-09-09T05:39:14.632992",
    "MEAN_MOTION": 15.7751819,
    "ECCENTRICITY": 0.0015807,
    "INCLINATION": 50.2045,
    "RA_OF_ASC_NODE": 40.0695,
    "ARG_OF_PERICENTER": 315.6843,
    "MEAN_ANOMALY": 44.2871,
    "EPHEMERIS_TYPE": 0,
    "CLASSIFICATION_TYPE": "U",
    "NORAD_CAT_ID": 46390,
    "ELEMENT_SET_NO": 999,
    "REV_AT_EPOCH": 78,
    "BSTAR": 6.7681e-5,
    "MEAN_MOTION_DOT": 0.00010937,
    "MEAN_MOTION_DDOT": 0
},{
    "OBJECT_NAME": "CZ-2F DEB",
    "OBJECT_ID": "2020-063C",
    "EPOCH": "2020-09-08T23:24:21.501504",
    "MEAN_MOTION": 15.37242808,
    "ECCENTRICITY": 0.0159867,
    "INCLINATION": 49.9029,
    "RA_OF_ASC_NODE": 43.0188,
    "ARG_OF_PERICENTER": 164.4089,
    "MEAN_ANOMALY": 196.1844,
    "EPHEMERIS_TYPE": 0,
    "CLASSIFICATION_TYPE": "U",
    "NORAD_CAT_ID": 46391,
    "ELEMENT_SET_NO": 999,
    "REV_AT_EPOCH": 71,
    "BSTAR": 0.0010971,
    "MEAN_MOTION_DOT": 0.00063289,
    "MEAN_MOTION_DDOT": 0
},{
    "OBJECT_NAME": "CZ-2F DEB",
    "OBJECT_ID": "2020-063D",
    "EPOCH": "2020-09-08T19:33:22.595040",
    "MEAN_MOTION": 15.47658049,
    "ECCENTRICITY": 0.0116489,
    "INCLINATION": 49.8676,
    "RA_OF_ASC_NODE": 43.4884,
    "ARG_OF_PERICENTER": 170.1718,
    "MEAN_ANOMALY": 190.155,
    "EPHEMERIS_TYPE": 0,
    "CLASSIFICATION_TYPE": "U",
    "NORAD_CAT_ID": 46392,
    "ELEMENT_SET_NO": 999,
    "REV_AT_EPOCH": 69,
    "BSTAR": 0.0011638,
    "MEAN_MOTION_DOT": 0.00080722,
    "MEAN_MOTION_DDOT": 0
},{
    "OBJECT_NAME": "CZ-2F DEB",
    "OBJECT_ID": "2020-063E",
    "EPOCH": "2020-09-08T23:10:56.891136",
    "MEAN_MOTION": 15.62037376,
    "ECCENTRICITY": 0.0106924,
    "INCLINATION": 50.4194,
    "RA_OF_ASC_NODE": 41.9917,
    "ARG_OF_PERICENTER": 223.4398,
    "MEAN_ANOMALY": 135.8113,
    "EPHEMERIS_TYPE": 0,
    "CLASSIFICATION_TYPE": "U",
    "NORAD_CAT_ID": 46393,
    "ELEMENT_SET_NO": 999,
    "REV_AT_EPOCH": 55,
    "BSTAR": 0.0011509,
    "MEAN_MOTION_DOT": 0.0013907,
    "MEAN_MOTION_DDOT": 0
},{
    "OBJECT_NAME": "CZ-2F DEB",
    "OBJECT_ID": "2020-063F",
    "EPOCH": "2020-09-08T22:09:20.698272",
    "MEAN_MOTION": 15.54698071,
    "ECCENTRICITY": 0.0113865,
    "INCLINATION": 50.4633,
    "RA_OF_ASC_NODE": 42.4515,
    "ARG_OF_PERICENTER": 205.6064,
    "MEAN_ANOMALY": 153.9505,
    "EPHEMERIS_TYPE": 0,
    "CLASSIFICATION_TYPE": "U",
    "NORAD_CAT_ID": 46394,
    "ELEMENT_SET_NO": 999,
    "REV_AT_EPOCH": 58,
    "BSTAR": 0.0010856,
    "MEAN_MOTION_DOT": 0.00098914,
    "MEAN_MOTION_DDOT": 0
},{
    "OBJECT_NAME": "2020-063G",
    "OBJECT_ID": "2020-063G",
    "EPOCH": "2020-09-09T16:20:54.781440",
    "MEAN_MOTION": 15.76765193,
    "ECCENTRICITY": 0.0011906,
    "INCLINATION": 50.2069,
    "RA_OF_ASC_NODE": 37.7335,
    "ARG_OF_PERICENTER": 312.4886,
    "MEAN_ANOMALY": 47.5087,
    "EPHEMERIS_TYPE": 0,
    "CLASSIFICATION_TYPE": "U",
    "NORAD_CAT_ID": 46395,
    "ELEMENT_SET_NO": 999,
    "REV_AT_EPOCH": 85,
    "BSTAR": 4.8268e-5,
    "MEAN_MOTION_DOT": 7.312e-5,
    "MEAN_MOTION_DDOT": 0
},{
    "OBJECT_NAME": "GAOFEN 11-2",
    "OBJECT_ID": "2020-064A",
    "EPOCH": "2020-09-09T04:51:50.673312",
    "MEAN_MOTION": 15.31798244,
    "ECCENTRICITY": 0.032655,
    "INCLINATION": 97.3306,
    "RA_OF_ASC_NODE": 5.3398,
    "ARG_OF_PERICENTER": 164.6036,
    "MEAN_ANOMALY": 289.2895,
    "EPHEMERIS_TYPE": 0,
    "CLASSIFICATION_TYPE": "U",
    "NORAD_CAT_ID": 46396,
    "ELEMENT_SET_NO": 999,
    "REV_AT_EPOCH": 30,
    "BSTAR": 0,
    "MEAN_MOTION_DOT": -5.97e-6,
    "MEAN_MOTION_DDOT": 1.8911e-6
},{
    "OBJECT_NAME": "CZ-4B R\/B",
    "OBJECT_ID": "2020-064B",
    "EPOCH": "2020-09-09T03:46:20.853120",
    "MEAN_MOTION": 15.6818258,
    "ECCENTRICITY": 0.019736,
    "INCLINATION": 97.2642,
    "RA_OF_ASC_NODE": 5.3562,
    "ARG_OF_PERICENTER": 144.2573,
    "MEAN_ANOMALY": 305.9646,
    "EPHEMERIS_TYPE": 0,
    "CLASSIFICATION_TYPE": "U",
    "NORAD_CAT_ID": 46397,
    "ELEMENT_SET_NO": 999,
    "REV_AT_EPOCH": 30,
    "BSTAR": 0,
    "MEAN_MOTION_DOT": -6.34e-6,
    "MEAN_MOTION_DDOT": 2.0067e-6
}]
